OBJECT_NAME,OBJECT_ID,EPOCH,MEAN_MOTION,ECCENTRICITY,INCLINATION,RA_OF_ASC_NODE,ARG_OF_PERICENTER,MEAN_ANOMALY,EPHEMERIS_TYPE,CLASSIFICATION_TYPE,NORAD_CAT_ID,ELEMENT_SET_NO,REV_AT_EPOCH,BSTAR,MEAN_MOTION_DOT,MEAN_MOTION_DDOT
QB50P1,2014-033R,2026-06-16T18:06:40.569408,15.18255584,.0007757,98.0959,178.8704,216.7389,143.3312,0,U,40025,999,65296,.32109E-3,.6505E-4,0
DTUSAT-2,2014-033W,2026-06-16T12:16:23.651904,15.15011163,.00065619,98.0860,165.1955,227.8429,132.2245,0,U,40030,999,65258,.28991501E-3,.5343E-4,0
QB50P2,2014-033Y,2026-06-16T13:43:20.824320,15.15151501,.0007953,98.0746,164.4136,164.9395,195.2074,0,U,40032,999,65257,.27579E-3,.5101E-4,0
PERSEUS-M1,2014-033AF,2026-06-16T18:26:42.504864,14.95629727,.0010343,97.9641,111.8934,302.9709,57.0516,0,U,40039,999,65057,.11414E-3,.1208E-4,0
POLYITAN-1,2014-033AJ,2026-06-16T18:59:22.577856,15.33245199,.0008614,98.0938,194.0149,142.4078,217.7766,0,U,40042,999,65353,.47987E-3,.15356E-3,0
TIGRISAT,2014-033AK,2026-06-16T08:59:38.107968,14.85160382,.00506092,97.7829,317.4045,77.8381,282.8497,0,U,40043,999,64550,.21114101E-3,.1794E-4,0
CANX-4,2014-034C,2026-06-16T14:40:32.856096,14.81263782,.0013211,98.3123,42.9035,18.8491,341.3206,0,U,40055,999,64444,.10412E-3,.755E-5,0
CANX-5,2014-034D,2026-06-16T21:07:23.255328,14.81281507,.00132,98.3124,43.2255,18.2211,341.9470,0,U,40056,999,63529,.10512E-3,.763E-5,0
GONETS-M 10,2014-036C,2026-06-16T19:53:43.031328,12.42945611,.0022644,82.5113,307.8964,141.3135,218.9572,0,U,40063,999,54220,-.7489E-6,.1E-6,0
METEOR-M 2,2014-037A,2026-06-16T20:44:13.352352,14.21460245,.000676,98.5109,143.6137,45.4754,314.6975,0,U,40069,999,61927,-.88867E-4,-.236E-5,0
DX1,2014-037C,2026-06-16T21:23:32.609760,14.89981687,.0005826,98.3865,129.5749,277.2158,82.8396,0,U,40071,999,64606,.74506E-4,.655E-5,0
UKUBE-1,2014-037F,2026-06-16T13:45:29.511072,15.13544703,.0002583,98.4228,170.7806,133.5977,226.5466,0,U,40074,999,64846,.37046E-3,.6564E-4,0
GAOFEN-2,2014-049A,2026-06-16T20:07:27.373728,14.80896797,.0006077,98.0113,232.0459,228.7299,131.3391,0,U,40118,999,63918,.59196E-5,-.8E-7,0
BRITE-PL2 (HEWELIUSZ),2014-049B,2026-06-16T07:14:54.064032,14.94590679,.0015251,97.9097,279.2951,111.1081,249.1771,0,U,40119,999,64131,.13881E-3,.1445E-4,0
CBERS 4,2014-079A,2026-06-16T19:52:28.431840,14.35508502,.0001865,98.3534,224.6707,63.3467,296.7910,0,U,40336,999,60390,.13452E-4,-.4E-7,0
SMAP,2015-003A,2026-06-16T20:59:39.557760,14.63366394,.0001326,98.1276,174.9737,96.5150,263.6204,0,U,40376,999,60757,.74789E-4,.34E-5,0
GONETS-M 11,2015-020A,2026-06-16T20:20:12.902784,12.42877296,.0016655,82.4870,31.2041,6.5435,353.5859,0,U,40552,999,50869,.47502E-3,.76E-6,0
GONETS-M 12,2015-020B,2026-06-16T21:37:57.669888,12.42891308,.0015356,82.4904,32.2941,351.6076,8.4745,0,U,40553,999,50869,.49661E-3,.79E-6,0
GONETS-M 13,2015-020C,2026-06-16T20:59:46.120704,12.42870413,.00137,82.4866,30.9258,337.0295,23.0170,0,U,40554,999,50866,.37783E-3,.62E-6,0
DMC3-FM1,2015-032A,2026-06-16T20:50:48.965856,14.85740320,.0007094,97.6462,33.0569,60.6777,299.5147,0,U,40715,999,58986,.85591E-4,.692E-5,0
DMC3-FM2,2015-032B,2026-06-16T21:22:34.491936,14.85742416,.0007591,97.6516,34.6513,64.3201,295.8798,0,U,40716,999,58986,-.13285E-5,-.63E-6,0
DMC3-FM3,2015-032C,2026-06-16T21:56:09.777984,14.85732669,.0006751,97.6567,36.4265,64.9214,295.2701,0,U,40717,999,58987,.64845E-4,.512E-5,0
CARBONITE 1 (CBNT-1),2015-032D,2026-06-16T20:17:12.509088,14.83586480,.0013195,97.6498,345.9257,299.2836,60.7060,0,U,40718,999,58929,.19683E-3,.1573E-4,0
LILACSAT-2,2015-049K,2026-06-16T21:14:47.387616,15.51436882,.0005498,97.4641,204.7154,246.4502,113.6173,0,U,40908,999,59570,.2541E-3,.14899E-3,0
COSMOS 2507 (RODNIK-S 13),2015-050A,2026-06-16T19:54:50.965056,12.42926469,.0010232,82.4932,79.8931,357.6530,2.4500,0,U,40920,999,48681,.13904E-3,.29E-6,0
COSMOS 2508 (RODNIK-S 14),2015-050B,2026-06-16T20:45:59.348736,12.42914049,.00152,82.4885,78.3763,27.5441,332.6441,0,U,40921,999,48680,.37568E-3,.62E-6,0
COSMOS 2509 (RODNIK-S 15),2015-050C,2026-06-16T19:19:20.951040,12.42883560,.0015731,82.4893,78.5161,43.7664,316.4659,0,U,40922,999,48683,.31563E-3,.54E-6,0
